[{"OBJECT_NAME":"YAOGAN-30 10A","OBJECT_ID":"2021-055A","EPOCH":"2026-03-09T23:48:28.291104","MEAN_MOTION":15.02193247,"ECCENTRICITY":0.0004983,"INCLINATION":34.9965,"RA_OF_ASC_NODE":36.5937,"ARG_OF_PERICENTER":279.793,"MEAN_ANOMALY":80.2215,"EPHEMERIS_TYPE":0,"CLASSIFICATION_TYPE":"U","NORAD_CAT_ID":48860,"ELEMENT_SET_NO":999,"REV_AT_EPOCH":25825,"BSTAR":0.00036861198,"MEAN_MOTION_DOT":4.929e-5,"MEAN_MOTION_DDOT":0},{"OBJECT_NAME":"STARLINK-35198","OBJECT_ID":"2025-211W","EPOCH":"2026-03-09T16:08:17.360160","MEAN_MOTION":15.05647983,"ECCENTRICITY":0.00012013,"INCLINATION":97.6038,"RA_OF_ASC_NODE":114.116,"ARG_OF_PERICENTER":136.3765,"MEAN_ANOMALY":223.7557,"EPHEMERIS_TYPE":0,"CLASSIFICATION_TYPE":"U","NORAD_CAT_ID":65672,"ELEMENT_SET_NO":999,"REV_AT_EPOCH":2704,"BSTAR":0.00016996395,"MEAN_MOTION_DOT":2.392e-5,"MEAN_MOTION_DDOT":0}]
